STARLINK-31301          
1 59935U 24106P   24164.25001157 -.00959302  00000+0 -44198-2 0  9999
2 59935  43.0034 357.1407 0001970 281.4416 151.3901 15.84931895  2989
STARLINK-31962          
1 59936U 24106Q   24164.25001157 -.00963680  00000+0 -44372-2 0  9998
2 59936  43.0033 357.1358 0001908 281.9150 152.8452 15.84956050  2937
STARLINK-31879          
1 59937U 24106R   24164.25001157 -.00978852  00000+0 -45121-2 0  9999
2 59937  43.0031 357.1217 0001907 281.8392 158.5798 15.84970076  2992
STARLINK-31876          
1 59938U 24106S   24164.25001157 -.00973311  00000+0 -44870-2 0  9995
2 59938  43.0031 357.1273 0001923 281.3425 156.7140 15.84954355  2932
STARLINK-31955          
1 59939U 24106T   24164.25001157 -.00982681  00000+0 -45269-2 0  9999
2 59939  43.0030 357.1166 0001855 281.4716 160.8938 15.84992905  2991
STARLINK-31946          
1 59940U 24106U   24164.25001157 -.00985891  00000+0 -45388-2 0  9999
2 59940  43.0030 357.1112 0001875 282.6923 161.7221 15.85013554  2988
STARLINK-31948          
1 59941U 24106V   24164.51002432 -.00152640  16950-4 -26286-3 0  9997
2 59941  43.0018 354.9285 0002511 277.6557  82.4036 16.01133634  2979
STARLINK-31900          
1 59942U 24106W   24164.25001157 -.01000240  00000+0 -46081-2 0  9999
2 59942  43.0030 357.0984 0001761 282.1235 167.4511 15.85035513  2941
STARLINK-31973          
1 59943U 24106X   24164.25001157 -.01010133  00000+0 -46543-2 0  9995
2 59943  43.0029 357.0851 0001934 281.2055 173.4807 15.85055025  2939
STARLINK-31966          
1 59944U 24106Y   24164.25001157 -.01010907  00000+0 -46655-2 0  9999
2 59944  43.0029 357.0891 0001908 280.1275 173.0847 15.85023675  2999
STARLINK-11145 [DTC]    
1 59945U 24107A   24164.25001157 -.00751619  00000+0 -26463-2 0  9997
2 59945  53.1538 148.6450 0000753 109.2419 347.6678 15.90083488  2298
STARLINK-11121 [DTC]    
1 59946U 24107B   24164.25001157 -.00737875  00000+0 -25386-2 0  9999
2 59946  53.1537 148.6315 0000661 101.0405   2.5222 15.90503429  2352
STARLINK-11113 [DTC]    
1 59947U 24107C   24164.25001157 -.00540878  10496-3 -14033-2 0  9996
2 59947  53.1539 148.5365 0000922  94.8854  54.4373 15.94271904  2296
STARLINK-11123 [DTC]    
1 59948U 24107D   24164.25001157 -.00733350  00000+0 -24942-2 0  9992
2 59948  53.1537 148.6239 0000702  99.2616   7.9744 15.90716114  2352
STARLINK-11138 [DTC]    
1 59949U 24107E   24164.25001157 -.00791596  19875-3 -24547-2 0  9994
2 59949  53.1538 148.6162 0000995  89.5810  21.3423 15.90927786  2354
STARLINK-11130 [DTC]    
1 59950U 24107F   24164.25001157 -.00786158  19668-3 -24131-2 0  9993
2 59950  53.1537 148.6096 0000874 104.6254   9.4780 15.91125331  2291
STARLINK-11126 [DTC]    
1 59951U 24107G   24164.25001157 -.00783354  19582-3 -23792-2 0  9996
2 59951  53.1539 148.6021 0000659  98.2419  19.4396 15.91330394  2352
STARLINK-11124 [DTC]    
1 59952U 24107H   24164.25001157 -.00777763  19368-3 -23386-2 0  9995
2 59952  53.1540 148.5955 0000638  96.2710  24.6403 15.91523919  2364
STARLINK-11143 [DTC]    
1 59953U 24107J   24164.25001157 -.00772857  19186-3 -23007-2 0  9993
2 59953  53.1541 148.5888 0000642  88.1931  35.9864 15.91716377  2291
STARLINK-11133 [DTC]    
1 59954U 24107K   24164.25001157 -.00766806  18952-3 -22608-2 0  9997
2 59954  53.1540 148.5825 0000890 107.9594  19.2530 15.91900544  2298
STARLINK-11144 [DTC]    
1 59955U 24107L   24164.25001157 -.00766850  18991-3 -22374-2 0  9990
2 59955  53.1540 148.5750 0000737 105.1664  25.7273 15.92102146  2350
STARLINK-11134 [DTC]    
1 59956U 24107M   24164.25001157 -.00761524  18792-3 -21995-2 0  9991
2 59956  53.1541 148.5679 0000894  56.1319  78.2596 15.92294987  1960
STARLINK-11142 [DTC]    
1 59957U 24107N   24164.25001157 -.00756333  18595-3 -21644-2 0  9996
2 59957  53.1541 148.5618 0001043  63.1754  74.1414 15.92470760  2298
STARLINK-31995          
1 59958U 24107P   24164.25001157 -.00987961  29951-3 -28985-2 0  9993
2 59958  53.1538 148.5346 0000678  95.2060  55.0655 15.92040626  2246
STARLINK-31989          
1 59959U 24107Q   24164.25001157 -.00973254  29116-3 -28720-2 0  9994
2 59959  53.1537 148.5406 0000713  87.1160  60.3450 15.91925803  2367
STARLINK-31856          
1 59960U 24107R   24164.25001157 -.01017687  31674-3 -29503-2 0  9998
2 59960  53.1533 148.5228 0000989 104.7883  51.2818 15.92275078  2360
STARLINK-31993          
1 59961U 24107S   24164.25001157 -.01005332  30949-3 -29304-2 0  9996
2 59961  53.1538 148.5281 0000693  98.8226  54.5814 15.92168622  2246
STARLINK-31980          
1 59962U 24107T   24164.25001157 -.01033111  32586-3 -29773-2 0  9992
2 59962  53.1535 148.5165 0000953 102.6020  56.3648 15.92391842  2360
STARLINK-31991          
1 59963U 24107U   24164.25001157 -.01050156  33604-3 -30093-2 0  9990
2 59963  53.1535 148.5107 0000689  82.4437  79.2886 15.92504125  2368
STARLINK-31979          
1 59964U 24107V   24164.25001157 -.01061453  34298-3 -30252-2 0  9990
2 59964  53.1535 148.5051 0000696  94.8138  69.6092 15.92610121  2243
